{"type": "FeatureCollection", "features": [{"type": "Feature", "properties": {"norad_id": 37846, "name": "GSAT0101 (GALILEO-PFM)", "group": "galileo", "lat": -56.966086127508675, "lon": -98.95442214507425, "alt_km": 23221.464816478867, "timestamp": "2025-12-09T05:43:20.988507+00:00", "meta": {"OBJECT_NAME": "GSAT0101 (GALILEO-PFM)", "OBJECT_ID": "2011-060A", "EPOCH": "2025-12-06T10:45:46.943136", "MEAN_MOTION": 1.70475516, "ECCENTRICITY": 0.00028809, "INCLINATION": 57.0541, "RA_OF_ASC_NODE": 346.9907, "ARG_OF_PERICENTER": 311.6243, "MEAN_ANOMALY": 48.3737, "EPHEMERIS_TYPE": 0, "CLASSIFICATION_TYPE": "U", "NORAD_CAT_ID": 37846, "ELEMENT_SET_NO": 999, "REV_AT_EPOCH": 8783, "BSTAR": 0, "MEAN_MOTION_DOT": -8.1e-07, "MEAN_MOTION_DDOT": 0}, "tle": {"line1": "1 37846U 11060A   25340.44845999 -.00000081  00000+0  00000+0 0  9990", "line2": "2 37846  57.0541 346.9907 0002880 311.6243  48.3737  1.70475516 87832"}}, "geometry": {"type": "Point", "coordinates": [-98.95442214507425, -56.966086127508675]}}, {"type": "Feature", "properties": {"norad_id": 37847, "name": "GSAT0102 (GALILEO-FM2)", "group": "galileo", "lat": -34.357223080459754, "lon": -39.40446317121357, "alt_km": 23212.183552178074, "timestamp": "2025-12-09T05:43:20.988531+00:00", "meta": {"OBJECT_NAME": "GSAT0102 (GALILEO-FM2)", "OBJECT_ID": "2011-060B", "EPOCH": "2025-12-06T01:52:21.849024", "MEAN_MOTION": 1.7047572, "ECCENTRICITY": 0.00048425, "INCLINATION": 57.055, "RA_OF_ASC_NODE": 347.0012, "ARG_OF_PERICENTER": 307.2223, "MEAN_ANOMALY": 230.8964, "EPHEMERIS_TYPE": 0, "CLASSIFICATION_TYPE": "U", "NORAD_CAT_ID": 37847, "ELEMENT_SET_NO": 999, "REV_AT_EPOCH": 8783, "BSTAR": 0, "MEAN_MOTION_DOT": -7.9e-07, "MEAN_MOTION_DDOT": 0}, "tle": {"line1": "1 37847U 11060B   25340.07803066 -.00000079  00000+0  00000+0 0  9996", "line2": "2 37847  57.0550 347.0012 0004842 307.2223 230.8964  1.70475720 87838"}}, "geometry": {"type": "Point", "coordinates": [-39.40446317121357, -34.357223080459754]}}, {"type": "Feature", "properties": {"norad_id": 38857, "name": "GSAT0103 (GALILEO-FM3)", "group": "galileo", "lat": -49.823223379015275, "lon": -19.354371632930544, "alt_km": 23220.978889999053, "timestamp": "2025-12-09T05:43:20.988547+00:00", "meta": {"OBJECT_NAME": "GSAT0103 (GALILEO-FM3)", "OBJECT_ID": "2012-055A", "EPOCH": "2025-12-06T11:43:28.953984", "MEAN_MOTION": 1.7047325, "ECCENTRICITY": 0.00024686, "INCLINATION": 55.6879, "RA_OF_ASC_NODE": 106.8382, "ARG_OF_PERICENTER": 267.747, "MEAN_ANOMALY": 92.1776, "EPHEMERIS_TYPE": 0, "CLASSIFICATION_TYPE": "U", "NORAD_CAT_ID": 38857, "ELEMENT_SET_NO": 999, "REV_AT_EPOCH": 8172, "BSTAR": 0, "MEAN_MOTION_DOT": 7e-08, "MEAN_MOTION_DDOT": 0}, "tle": {"line1": "1 38857U 12055A   25340.48852956  .00000007  00000+0  00000+0 0  9990", "line2": "2 38857  55.6879 106.8382 0002468 267.7470  92.1776  1.70473250 81723"}}, "geometry": {"type": "Point", "coordinates": [-19.354371632930544, -49.823223379015275]}}, {"type": "Feature", "properties": {"norad_id": 40128, "name": "GSAT0201 (GALILEO 5)", "group": "galileo", "lat": 31.00328600847091, "lon": -47.441447555757655, "alt_km": 23995.156501829788, "timestamp": "2025-12-09T05:43:20.988561+00:00", "meta": {"OBJECT_NAME": "GSAT0201 (GALILEO 5)", "OBJECT_ID": "2014-050A", "EPOCH": "2025-12-07T12:54:32.900256", "MEAN_MOTION": 1.85519488, "ECCENTRICITY": 0.16474216, "INCLINATION": 49.0828, "RA_OF_ASC_NODE": 281.2757, "ARG_OF_PERICENTER": 172.085, "MEAN_ANOMALY": 190.9173, "EPHEMERIS_TYPE": 0, "CLASSIFICATION_TYPE": "U", "NORAD_CAT_ID": 40128, "ELEMENT_SET_NO": 999, "REV_AT_EPOCH": 7476, "BSTAR": 0, "MEAN_MOTION_DOT": -5.9e-07, "MEAN_MOTION_DDOT": 0}, "tle": {"line1": "1 40128U 14050A   25341.53788079 -.00000059  00000+0  00000+0 0  9990", "line2": "2 40128  49.0828 281.2757 1647421 172.0850 190.9173  1.85519488 74761"}}, "geometry": {"type": "Point", "coordinates": [-47.441447555757655, 31.00328600847091]}}, {"type": "Feature", "properties": {"norad_id": 40129, "name": "GSAT0202 (GALILEO 6)", "group": "galileo", "lat": -48.98104180183944, "lon": -175.33648459866546, "alt_km": 21118.26545699237, "timestamp": "2025-12-09T05:43:20.988573+00:00", "meta": {"OBJECT_NAME": "GSAT0202 (GALILEO 6)", "OBJECT_ID": "2014-050B", "EPOCH": "2025-12-06T04:15:08.981856", "MEAN_MOTION": 1.85520222, "ECCENTRICITY": 0.16479377, "INCLINATION": 49.1003, "RA_OF_ASC_NODE": 280.4147, "ARG_OF_PERICENTER": 172.7832, "MEAN_ANOMALY": 189.9608, "EPHEMERIS_TYPE": 0, "CLASSIFICATION_TYPE": "U", "NORAD_CAT_ID": 40129, "ELEMENT_SET_NO": 999, "REV_AT_EPOCH": 7690, "BSTAR": 0, "MEAN_MOTION_DOT": -5.4e-07, "MEAN_MOTION_DDOT": 0}, "tle": {"line1": "1 40129U 14050B   25340.17718729 -.00000054  00000+0  00000+0 0  9990", "line2": "2 40129  49.1003 280.4147 1647937 172.7832 189.9608  1.85520222 76908"}}, "geometry": {"type": "Point", "coordinates": [-175.33648459866546, -48.98104180183944]}}, {"type": "Feature", "properties": {"norad_id": 40544, "name": "GSAT0203 (GALILEO 7)", "group": "galileo", "lat": 38.7788088719937, "lon": 18.453690590109424, "alt_km": 23231.60414560446, "timestamp": "2025-12-09T05:43:20.988585+00:00", "meta": {"OBJECT_NAME": "GSAT0203 (GALILEO 7)", "OBJECT_ID": "2015-017A", "EPOCH": "2025-12-07T23:40:17.785344", "MEAN_MOTION": 1.70475803, "ECCENTRICITY": 0.00065197, "INCLINATION": 56.8473, "RA_OF_ASC_NODE": 346.8097, "ARG_OF_PERICENTER": 270.7442, "MEAN_ANOMALY": 89.1988, "EPHEMERIS_TYPE": 0, "CLASSIFICATION_TYPE": "U", "NORAD_CAT_ID": 40544, "ELEMENT_SET_NO": 999, "REV_AT_EPOCH": 6594, "BSTAR": 0, "MEAN_MOTION_DOT": -8.6e-07, "MEAN_MOTION_DDOT": 0}, "tle": {"line1": "1 40544U 15017A   25341.98631696 -.00000086  00000+0  00000+0 0  9997", "line2": "2 40544  56.8473 346.8097 0006519 270.7442  89.1988  1.70475803 65948"}}, "geometry": {"type": "Point", "coordinates": [18.453690590109424, 38.7788088719937]}}, {"type": "Feature", "properties": {"norad_id": 40545, "name": "GSAT0204 (GALILEO 8)", "group": "galileo", "lat": -52.59850665105095, "lon": -134.48101260727015, "alt_km": 23209.481491822396, "timestamp": "2025-12-09T05:43:20.988597+00:00", "meta": {"OBJECT_NAME": "GSAT0204 (GALILEO 8)", "OBJECT_ID": "2015-017B", "EPOCH": "2025-12-08T05:48:09.490464", "MEAN_MOTION": 1.70475483, "ECCENTRICITY": 0.00062708, "INCLINATION": 56.8542, "RA_OF_ASC_NODE": 346.8204, "ARG_OF_PERICENTER": 261.7403, "MEAN_ANOMALY": 98.2059, "EPHEMERIS_TYPE": 0, "CLASSIFICATION_TYPE": "U", "NORAD_CAT_ID": 40545, "ELEMENT_SET_NO": 999, "REV_AT_EPOCH": 2899, "BSTAR": 0, "MEAN_MOTION_DOT": -8.6e-07, "MEAN_MOTION_DDOT": 0}, "tle": {"line1": "1 40545U 15017B   25342.24177651 -.00000086  00000+0  00000+0 0  9994", "line2": "2 40545  56.8542 346.8204 0006270 261.7403  98.2059  1.70475483 28995"}}, "geometry": {"type": "Point", "coordinates": [-134.48101260727015, -52.59850665105095]}}, {"type": "Feature", "properties": {"norad_id": 40889, "name": "GSAT0205 (GALILEO 9)", "group": "galileo", "lat": 27.098702541997714, "lon": -112.14875618017479, "alt_km": 23201.500221257123, "timestamp": "2025-12-09T05:43:20.988609+00:00", "meta": {"OBJECT_NAME": "GSAT0205 (GALILEO 9)", "OBJECT_ID": "2015-045A", "EPOCH": "2025-12-06T20:05:28.161600", "MEAN_MOTION": 1.70472973, "ECCENTRICITY": 0.00059315, "INCLINATION": 55.0055, "RA_OF_ASC_NODE": 226.9215, "ARG_OF_PERICENTER": 39.3036, "MEAN_ANOMALY": 320.836, "EPHEMERIS_TYPE": 0, "CLASSIFICATION_TYPE": "U", "NORAD_CAT_ID": 40889, "ELEMENT_SET_NO": 999, "REV_AT_EPOCH": 6373, "BSTAR": 0, "MEAN_MOTION_DOT": 2.8e-07, "MEAN_MOTION_DDOT": 0}, "tle": {"line1": "1 40889U 15045A   25340.83713150  .00000028  00000+0  00000+0 0  9994", "line2": "2 40889  55.0055 226.9215 0005931  39.3036 320.8360  1.70472973 63731"}}, "geometry": {"type": "Point", "coordinates": [-112.14875618017479, 27.098702541997714]}}, {"type": "Feature", "properties": {"norad_id": 40890, "name": "GSAT0206 (GALILEO 10)", "group": "galileo", "lat": -53.35897732884872, "lon": 117.09351929130112, "alt_km": 23235.23216813325, "timestamp": "2025-12-09T05:43:20.988620+00:00", "meta": {"OBJECT_NAME": "GSAT0206 (GALILEO 10)", "OBJECT_ID": "2015-045B", "EPOCH": "2025-12-08T05:32:31.943328", "MEAN_MOTION": 1.70473105, "ECCENTRICITY": 0.0003529, "INCLINATION": 55.0039, "RA_OF_ASC_NODE": 226.878, "ARG_OF_PERICENTER": 31.5182, "MEAN_ANOMALY": 328.5941, "EPHEMERIS_TYPE": 0, "CLASSIFICATION_TYPE": "U", "NORAD_CAT_ID": 40890, "ELEMENT_SET_NO": 999, "REV_AT_EPOCH": 6378, "BSTAR": 0, "MEAN_MOTION_DOT": 1.8e-07, "MEAN_MOTION_DDOT": 0}, "tle": {"line1": "1 40890U 15045B   25342.23092527  .00000018  00000+0  00000+0 0  9999", "line2": "2 40890  55.0039 226.8780 0003529  31.5182 328.5941  1.70473105 63781"}}, "geometry": {"type": "Point", "coordinates": [117.09351929130112, -53.35897732884872]}}, {"type": "Feature", "properties": {"norad_id": 41174, "name": "GSAT0209 (GALILEO 12)", "group": "galileo", "lat": 20.2831163084916, "lon": -88.12409707119214, "alt_km": 23226.47260844999, "timestamp": "2025-12-09T05:43:20.988632+00:00", "meta": {"OBJECT_NAME": "GSAT0209 (GALILEO 12)", "OBJECT_ID": "2015-079A", "EPOCH": "2025-12-08T09:34:38.512704", "MEAN_MOTION": 1.70474355, "ECCENTRICITY": 0.00023972, "INCLINATION": 55.7104, "RA_OF_ASC_NODE": 106.5001, "ARG_OF_PERICENTER": 353.8677, "MEAN_ANOMALY": 6.0907, "EPHEMERIS_TYPE": 0, "CLASSIFICATION_TYPE": "U", "NORAD_CAT_ID": 41174, "ELEMENT_SET_NO": 999, "REV_AT_EPOCH": 6152, "BSTAR": 0, "MEAN_MOTION_DOT": 1e-07, "MEAN_MOTION_DDOT": 0}, "tle": {"line1": "1 41174U 15079A   25342.39905686  .00000010  00000+0  00000+0 0  9990", "line2": "2 41174  55.7104 106.5001 0002397 353.8677   6.0907  1.70474355 61526"}}, "geometry": {"type": "Point", "coordinates": [-88.12409707119214, 20.2831163084916]}}]}